[{"OBJECT_NAME":"APRIZESAT 7","OBJECT_ID":"2013-066A","EPOCH":"2026-03-09T22:14:12.854688","MEAN_MOTION":14.91283287,"ECCENTRICITY":0.00359789,"INCLINATION":97.7595,"RA_OF_ASC_NODE":23.6578,"ARG_OF_PERICENTER":178.0186,"MEAN_ANOMALY":182.1181,"EPHEMERIS_TYPE":0,"CLASSIFICATION_TYPE":"U","NORAD_CAT_ID":39416,"ELEMENT_SET_NO":999,"REV_AT_EPOCH":66643,"BSTAR":0.00016772005,"MEAN_MOTION_DOT":1.633e-5,"MEAN_MOTION_DDOT":0},{"OBJECT_NAME":"STARLINK-34357","OBJECT_ID":"2025-123V","EPOCH":"2026-03-09T18:00:31.849632","MEAN_MOTION":14.98336272,"ECCENTRICITY":0.00033879,"INCLINATION":70.0024,"RA_OF_ASC_NODE":194.4641,"ARG_OF_PERICENTER":271.5106,"MEAN_ANOMALY":88.5665,"EPHEMERIS_TYPE":0,"CLASSIFICATION_TYPE":"U","NORAD_CAT_ID":64310,"ELEMENT_SET_NO":999,"REV_AT_EPOCH":4162,"BSTAR":0.0006925715,"MEAN_MOTION_DOT":8.182e-5,"MEAN_MOTION_DDOT":0}]
